*******************************************************************************
Ephemeris / WWW_USER Fri Mar  7 09:49:00 2025 Pasadena, USA      / Horizons    
*******************************************************************************
Target body name: Pluto (999)                     {source: plu060_merged}
Center body name: Earth (399)                     {source: DE441}
Center-site name: Mauna Kea
*******************************************************************************
Start time      : A.D. 2018-Oct-10 04:12:00.0000 UT      
Stop  time      : A.D. 2018-Oct-10 16:05:00.0000 UT      
Step-size       : 1 minutes
*******************************************************************************
Target pole/equ : IAU_PLUTO                       {East-longitude positive}
Target radii    : 1188.3, 1188.3, 1188.3 km       {Equator_a, b, pole_c}       
Center geodetic : 204.5278, 19.8260847, 4.21024   {E-lon(deg),Lat(deg),Alt(km)}
Center cylindric: 204.5278, 6006.35451, 2151.0229 {E-lon(deg),Dxy(km),Dz(km)}
Center pole/equ : ITRF93                          {East-longitude positive}
Center radii    : 6378.137, 6378.137, 6356.752 km {Equator_a, b, pole_c}       
Target primary  : Sun
Vis. interferer : MOON (R_eq= 1737.400) km        {source: DE441}
Rel. light bend : Sun                             {source: plu060_merged}
Rel. lght bnd GM: 1.3271E+11 km^3/s^2                                          
Atmos refraction: NO (AIRLESS)
RA format       : HMS
Time format     : CAL 
Calendar mode   : Mixed Julian/Gregorian
RTS-only print  : NO       
EOP file        : eop.250306.p250602                                           
EOP coverage    : DATA-BASED 1962-JAN-20 TO 2025-MAR-06. PREDICTS-> 2025-JUN-01
Units conversion: 1 au= 149597870.700 km, c= 299792.458 km/s, 1 day= 86400.0 s 
Table cut-offs 1: Elevation (-90.0deg=NO ),Airmass (>38.000=NO), Daylight (YES)
Table cut-offs 2: Solar elongation (  0.0,180.0=NO ),Local Hour Angle( 0.0=NO )
Table cut-offs 3: RA/DEC angular rate (     0.0=NO )                           
*******************************************************************************
 Date__(UT)__HR:MN     R.A._________(ICRF)_________DEC
******************************************************
$$SOE
 2018-Oct-10 15:57 C   19 20 13.236795 -22 08 06.98555
 2018-Oct-10 15:58 C   19 20 13.237771 -22 08 06.98770
 2018-Oct-10 15:59 C   19 20 13.238748 -22 08 06.98986
 2018-Oct-10 16:00 C   19 20 13.239725 -22 08 06.99201
 2018-Oct-10 16:01 C   19 20 13.240701 -22 08 06.99417
 2018-Oct-10 16:02 C   19 20 13.241678 -22 08 06.99633
 2018-Oct-10 16:03 C   19 20 13.242655 -22 08 06.99849
 2018-Oct-10 16:04 C   19 20 13.243632 -22 08 07.00065
 2018-Oct-10 16:05 C   19 20 13.244610 -22 08 07.00282
